[{"OBJECT_NAME":"STARLINK-5533","OBJECT_ID":"2023-058AQ","EPOCH":"2026-03-09T22:52:13.220256","MEAN_MOTION":15.01262784,"ECCENTRICITY":0.00019384,"INCLINATION":97.6048,"RA_OF_ASC_NODE":70.5271,"ARG_OF_PERICENTER":89.8933,"MEAN_ANOMALY":270.2514,"EPHEMERIS_TYPE":0,"CLASSIFICATION_TYPE":"U","NORAD_CAT_ID":56355,"ELEMENT_SET_NO":999,"REV_AT_EPOCH":15817,"BSTAR":5.7430795e-5,"MEAN_MOTION_DOT":6.79e-6,"MEAN_MOTION_DDOT":0},{"OBJECT_NAME":"COSMOS 2151","OBJECT_ID":"1991-042A","EPOCH":"2026-03-09T21:12:10.736640","MEAN_MOTION":15.00104908,"ECCENTRICITY":0.00139956,"INCLINATION":82.493,"RA_OF_ASC_NODE":83.4892,"ARG_OF_PERICENTER":63.3058,"MEAN_ANOMALY":296.9597,"EPHEMERIS_TYPE":0,"CLASSIFICATION_TYPE":"U","NORAD_CAT_ID":21422,"ELEMENT_SET_NO":999,"REV_AT_EPOCH":86322,"BSTAR":0.00015116122,"MEAN_MOTION_DOT":1.915e-5,"MEAN_MOTION_DDOT":0}]
